CTC1_L_00513001-01
1 10000U 25744AP  26075.70037037  .00000000  00000+0  00000-0 0  9999
2 10000  97.4000   0.0000 0000000   0.0000   0.0000 15.08756051    12
CTC1_L_00513001-02
1 10001U 26804BK  26075.70037037  .00000000  00000+0  00000-0 0  9998
2 10001  97.4000   0.0000 0000000   0.0000 120.0000 15.08756051    16
CTC1_L_00513001-03
1 10002U 25016JJ  26075.70037037  .00000000  00000+0  00000-0 0  9993
2 10002  97.4000   0.0000 0000000   0.0000 240.0000 15.08756051    10
CTC1_L_00513002-01
1 10003U 26876AU  26075.70037037  .00000000  00000+0  00000-0 0  9999
2 10003  97.4000  12.0000 0000000   0.0000  16.0000 15.08756051    15
CTC1_L_00513002-02
1 10004U 25477QH  26075.70037037  .00000000  00000+0  00000-0 0  9996
2 10004  97.4000  12.0000 0000000   0.0000 136.0000 15.08756051    19
CTC1_L_00513002-03
1 10005U 26563QX  26075.70037037  .00000000  00000+0  00000-0 0  9994
2 10005  97.4000  12.0000 0000000   0.0000 256.0000 15.08756051    13
CTC1_L_00513003-01
1 10006U 26998SH  26075.70037037  .00000000  00000+0  00000-0 0  9997
2 10006  97.4000  24.0000 0000000   0.0000  32.0000 15.08756051    19
CTC1_L_00513003-02
1 10007U 25321TS  26075.70037037  .00000000  00000+0  00000-0 0  9997
2 10007  97.4000  24.0000 0000000   0.0000 152.0000 15.08756051    13
CTC1_L_00513003-03
1 10008U 25351CF  26075.70037037  .00000000  00000+0  00000-0 0  9991
2 10008  97.4000  24.0000 0000000   0.0000 272.0000 15.08756051    17
CTC1_L_00513004-01
1 10009U 23336PA  26075.70037037  .00000000  00000+0  00000-0 0  9993
2 10009  97.4000  36.0000 0000000   0.0000  48.0000 15.08756051    12
CTC1_L_00513004-02
1 10010U 25160JF  26075.70037037  .00000000  00000+0  00000-0 0  9992
2 10010  97.4000  36.0000 0000000   0.0000 168.0000 15.08756051    17
CTC1_L_00513004-03
1 10011U 24362MI  26075.70037037  .00000000  00000+0  00000-0 0  9996
2 10011  97.4000  36.0000 0000000   0.0000 288.0000 15.08756051    11
CTC1_L_00513005-01
1 10012U 24890SV  26075.70037037  .00000000  00000+0  00000-0 0  9993
2 10012  97.4000  48.0000 0000000   0.0000  64.0000 15.08756051    17
CTC1_L_00513005-02
1 10013U 22647EM  26075.70037037  .00000000  00000+0  00000-0 0  9992
2 10013  97.4000  48.0000 0000000   0.0000 184.0000 15.08756051    11
CTC1_L_00513005-03
1 10014U 26067HC  26075.70037037  .00000000  00000+0  00000-0 0  9993
2 10014  97.4000  48.0000 0000000   0.0000 304.0000 15.08756051    16
CTC1_L_00513006-01
1 10015U 23650TT  26075.70037037  .00000000  00000+0  00000-0 0  9999
2 10015  97.4000  60.0000 0000000   0.0000  80.0000 15.08756051    12
CTC1_L_00513006-02
1 10016U 22682ZX  26075.70037037  .00000000  00000+0  00000-0 0  9994
2 10016  97.4000  60.0000 0000000   0.0000 200.0000 15.08756051    17
CTC1_L_00513006-03
1 10017U 25638RH  26075.70037037  .00000000  00000+0  00000-0 0  9999
2 10017  97.4000  60.0000 0000000   0.0000 320.0000 15.08756051    11
CTC1_L_00513007-01
1 10018U 25978NT  26075.70037037  .00000000  00000+0  00000-0 0  9997
2 10018  97.4000  72.0000 0000000   0.0000  96.0000 15.08756051    15
CTC1_L_00513007-02
1 10019U 22286WX  26075.70037037  .00000000  00000+0  00000-0 0  9997
2 10019  97.4000  72.0000 0000000   0.0000 216.0000 15.08756051    10
CTC1_L_00513007-03
1 10020U 23082JE  26075.70037037  .00000000  00000+0  00000-0 0  9994
2 10020  97.4000  72.0000 0000000   0.0000 336.0000 15.08756051    15
CTC1_L_00513008-01
1 10021U 24638SX  26075.70037037  .00000000  00000+0  00000-0 0  9993
2 10021  97.4000  84.0000 0000000   0.0000 112.0000 15.08756051    11
CTC1_L_00513008-02
1 10022U 23988M   26075.70037037  .00000000  00000+0  00000-0 0  9991
2 10022  97.4000  84.0000 0000000   0.0000 232.0000 15.08756051    15
CTC1_L_00513008-03
1 10023U 26914RY  26075.70037037  .00000000  00000+0  00000-0 0  9994
2 10023  97.4000  84.0000 0000000   0.0000 352.0000 15.08756051    19
CTC1_L_00513009-01
1 10024U 26614WY  26075.70037037  .00000000  00000+0  00000-0 0  9992
2 10024  97.4000  96.0000 0000000   0.0000 128.0000 15.08756051    14
CTC1_L_00513009-02
1 10025U 22340NQ  26075.70037037  .00000000  00000+0  00000-0 0  9995
2 10025  97.4000  96.0000 0000000   0.0000 248.0000 15.08756051    18
CTC1_L_00513009-03
1 10026U 22160NX  26075.70037037  .00000000  00000+0  00000-0 0  9996
2 10026  97.4000  96.0000 0000000   0.0000   8.0000 15.08756051    13
CTC1_L_00513010-01
1 10027U 26112RE  26075.70037037  .00000000  00000+0  00000-0 0  9998
2 10027  97.4000 108.0000 0000000   0.0000 144.0000 15.08756051    19
CTC1_L_00513010-02
1 10028U 22385HV  26075.70037037  .00000000  00000+0  00000-0 0  9997
2 10028  97.4000 108.0000 0000000   0.0000 264.0000 15.08756051    13
CTC1_L_00513010-03
1 10029U 24283JK  26075.70037037  .00000000  00000+0  00000-0 0  9997
2 10029  97.4000 108.0000 0000000   0.0000  24.0000 15.08756051    18
CTC1_L_00513011-01
1 10030U 22100OD  26075.70037037  .00000000  00000+0  00000-0 0  9995
2 10030  97.4000 120.0000 0000000   0.0000 160.0000 15.08756051    15
CTC1_L_00513011-02
1 10031U 24825UO  26075.70037037  .00000000  00000+0  00000-0 0  9992
2 10031  97.4000 120.0000 0000000   0.0000 280.0000 15.08756051    19
CTC1_L_00513011-03
1 10032U 25893EX  26075.70037037  .00000000  00000+0  00000-0 0  9999
2 10032  97.4000 120.0000 0000000   0.0000  40.0000 15.08756051    14
CTC1_L_00513012-01
1 10033U 23481LQ  26075.70037037  .00000000  00000+0  00000-0 0  9991
2 10033  97.4000 132.0000 0000000   0.0000 176.0000 15.08756051    18
CTC1_L_00513012-02
1 10034U 22621SF  26075.70037037  .00000000  00000+0  00000-0 0  9997
2 10034  97.4000 132.0000 0000000   0.0000 296.0000 15.08756051    12
CTC1_L_00513012-03
1 10035U 23963QX  26075.70037037  .00000000  00000+0  00000-0 0  9998
2 10035  97.4000 132.0000 0000000   0.0000  56.0000 15.08756051    17
CTC1_L_00513013-01
1 10036U 22992KG  26075.70037037  .00000000  00000+0  00000-0 0  9990
2 10036  97.4000 144.0000 0000000   0.0000 192.0000 15.08756051    12
CTC1_L_00513013-02
1 10037U 23747RU  26075.70037037  .00000000  00000+0  00000-0 0  9990
2 10037  97.4000 144.0000 0000000   0.0000 312.0000 15.08756051    17
CTC1_L_00513013-03
1 10038U 25441OD  26075.70037037  .00000000  00000+0  00000-0 0  9994
2 10038  97.4000 144.0000 0000000   0.0000  72.0000 15.08756051    11
CTC1_L_00513014-01
1 10039U 22590AO  26075.70037037  .00000000  00000+0  00000-0 0  9997
2 10039  97.4000 156.0000 0000000   0.0000 208.0000 15.08756051    16
CTC1_L_00513014-02
1 10040U 22425KF  26075.70037037  .00000000  00000+0  00000-0 0  9996
2 10040  97.4000 156.0000 0000000   0.0000 328.0000 15.08756051    11
CTC1_L_00513014-03
1 10041U 25828RL  26075.70037037  .00000000  00000+0  00000-0 0  9997
2 10041  97.4000 156.0000 0000000   0.0000  88.0000 15.08756051    15
CTC1_L_00513015-01
1 10042U 25571YC  26075.70037037  .00000000  00000+0  00000-0 0  9993
2 10042  97.4000 168.0000 0000000   0.0000 224.0000 15.08756051    11
CTC1_L_00513015-02
1 10043U 25400OC  26075.70037037  .00000000  00000+0  00000-0 0  9995
2 10043  97.4000 168.0000 0000000   0.0000 344.0000 15.08756051    15
CTC1_L_00513015-03
1 10044U 23961E   26075.70037037  .00000000  00000+0  00000-0 0  9996
2 10044  97.4000 168.0000 0000000   0.0000 104.0000 15.08756051    10
CTC1_L_00513016-01
1 10045U 23983QD  26075.70037037  .00000000  00000+0  00000-0 0  9991
2 10045  97.4000 180.0000 0000000   0.0000 240.0000 15.08756051    16
CTC1_L_00513016-02
1 10046U 23158OD  26075.70037037  .00000000  00000+0  00000-0 0  9996
2 10046  97.4000 180.0000 0000000   0.0000   0.0000 15.08756051    11
CTC1_L_00513016-03
1 10047U 23467NO  26075.70037037  .00000000  00000+0  00000-0 0  9990
2 10047  97.4000 180.0000 0000000   0.0000 120.0000 15.08756051    15
CTC1_L_00513017-01
1 10048U 22074VQ  26075.70037037  .00000000  00000+0  00000-0 0  9994
2 10048  97.4000 192.0000 0000000   0.0000 256.0000 15.08756051    19
CTC1_L_00513017-02
1 10049U 25805CT  26075.70037037  .00000000  00000+0  00000-0 0  9990
2 10049  97.4000 192.0000 0000000   0.0000  16.0000 15.08756051    14
CTC1_L_00513017-03
1 10050U 25607LO  26075.70037037  .00000000  00000+0  00000-0 0  9992
2 10050  97.4000 192.0000 0000000   0.0000 136.0000 15.08756051    19
CTC1_L_00513018-01
1 10051U 22316AF  26075.70037037  .00000000  00000+0  00000-0 0  9997
2 10051  97.4000 204.0000 0000000   0.0000 272.0000 15.08756051    15
CTC1_L_00513018-02
1 10052U 22400MZ  26075.70037037  .00000000  00000+0  00000-0 0  9992
2 10052  97.4000 204.0000 0000000   0.0000  32.0000 15.08756051    10
CTC1_L_00513018-03
1 10053U 22756WP  26075.70037037  .00000000  00000+0  00000-0 0  9997
2 10053  97.4000 204.0000 0000000   0.0000 152.0000 15.08756051    14
CTC1_L_00513019-01
1 10054U 23453GH  26075.70037037  .00000000  00000+0  00000-0 0  9993
2 10054  97.4000 216.0000 0000000   0.0000 288.0000 15.08756051    18
CTC1_L_00513019-02
1 10055U 23470DA  26075.70037037  .00000000  00000+0  00000-0 0  9993
2 10055  97.4000 216.0000 0000000   0.0000  48.0000 15.08756051    13
CTC1_L_00513019-03
1 10056U 22880UK  26075.70037037  .00000000  00000+0  00000-0 0  9998
2 10056  97.4000 216.0000 0000000   0.0000 168.0000 15.08756051    17
CTC1_L_00513020-01
1 10057U 23710PQ  26075.70037037  .00000000  00000+0  00000-0 0  9992
2 10057  97.4000 228.0000 0000000   0.0000 304.0000 15.08756051    13
CTC1_L_00513020-02
1 10058U 26397WJ  26075.70037037  .00000000  00000+0  00000-0 0  9997
2 10058  97.4000 228.0000 0000000   0.0000  64.0000 15.08756051    17
CTC1_L_00513020-03
1 10059U 24225SH  26075.70037037  .00000000  00000+0  00000-0 0  9996
2 10059  97.4000 228.0000 0000000   0.0000 184.0000 15.08756051    11
CTC1_L_00513021-01
1 10060U 26420PA  26075.70037037  .00000000  00000+0  00000-0 0  9997
2 10060  97.4000 240.0000 0000000   0.0000 320.0000 15.08756051    19
CTC1_L_00513021-02
1 10061U 25926VV  26075.70037037  .00000000  00000+0  00000-0 0  9998
2 10061  97.4000 240.0000 0000000   0.0000  80.0000 15.08756051    13
